{
    "links": {
        "self": "http://www.neowsapp.com/rest/v1/neo/3648468?api_key=iIulBulltgU6a56xZRHN4H3l9WmuAYTsLGpBGhQ2"
    },
    "id": "3648468",
    "neo_reference_id": "3648468",
    "name": "(2013 SS)",
    "designation": "2013 SS",
    "nasa_jpl_url": "http://ssd.jpl.nasa.gov/sbdb.cgi?sstr=3648468",
    "absolute_magnitude_h": 24.2,
    "estimated_diameter": {
        "kilometers": {
            "estimated_diameter_min": 0.0384197891,
            "estimated_diameter_max": 0.0859092601
        },
        "meters": {
            "estimated_diameter_min": 38.4197891064,
            "estimated_diameter_max": 85.9092601232
        },
        "miles": {
            "estimated_diameter_min": 0.0238729428,
            "estimated_diameter_max": 0.0533815229
        },
        "feet": {
            "estimated_diameter_min": 126.0491808919,
            "estimated_diameter_max": 281.8545369825
        }
    },
    "is_potentially_hazardous_asteroid": false,
    "close_approach_data": [
        {
            "close_approach_date": "2013-09-09",
            "close_approach_date_full": "2013-Sep-09 00:12",
            "epoch_date_close_approach": 1378685520000,
            "relative_velocity": {
                "kilometers_per_second": "8.3699324681",
                "kilometers_per_hour": "30131.7568852605",
                "miles_per_hour": "18722.7019379553"
            },
            "miss_distance": {
                "astronomical": "0.1182899671",
                "lunar": "46.0147972019",
                "kilometers": "17695927.120530077",
                "miles": "10995739.2334939826"
            },
            "orbiting_body": "Earth"
        },
        {
            "close_approach_date": "2153-10-06",
            "close_approach_date_full": "2153-Oct-06 12:27",
            "epoch_date_close_approach": 5799040020000,
            "relative_velocity": {
                "kilometers_per_second": "18.2384077198",
                "kilometers_per_hour": "65658.2677912044",
                "miles_per_hour": "40797.4942283736"
            },
            "miss_distance": {
                "astronomical": "0.4647993132",
                "lunar": "180.8069328348",
                "kilometers": "69532987.232182884",
                "miles": "43205794.7867524392"
            },
            "orbiting_body": "Earth"
        },
        {
            "close_approach_date": "2169-08-27",
            "close_approach_date_full": "2169-Aug-27 14:51",
            "epoch_date_close_approach": 6300514260000,
            "relative_velocity": {
                "kilometers_per_second": "7.6861916997",
                "kilometers_per_hour": "27670.2901189293",
                "miles_per_hour": "17193.2422130647"
            },
            "miss_distance": {
                "astronomical": "0.1527227704",
                "lunar": "59.4091576856",
                "kilometers": "22847001.152339048",
                "miles": "14196468.2170849424"
            },
            "orbiting_body": "Earth"
        },
        {
            "close_approach_date": "2188-10-05",
            "close_approach_date_full": "2188-Oct-05 17:13",
            "epoch_date_close_approach": 6903508380000,
            "relative_velocity": {
                "kilometers_per_second": "17.8715643019",
                "kilometers_per_hour": "64337.6314868245",
                "miles_per_hour": "39976.9021869105"
            },
            "miss_distance": {
                "astronomical": "0.453725966",
                "lunar": "176.499400774",
                "kilometers": "67876438.07729242",
                "miles": "42176462.872658596"
            },
            "orbiting_body": "Earth"
        }
    ],
    "orbital_data": {
        "orbit_id": "9",
        "orbit_determination_date": "2017-04-06 08:44:38",
        "first_observation_date": "2013-09-23",
        "last_observation_date": "2013-10-30",
        "data_arc_in_days": 37,
        "observations_used": 25,
        "orbit_uncertainty": "6",
        "minimum_orbit_intersection": ".108557",
        "jupiter_tisserand_invariant": "3.511",
        "epoch_osculation": "2459000.5",
        "eccentricity": ".4920141105453526",
        "semi_major_axis": "2.162556647743909",
        "inclination": "10.25592400414869",
        "ascending_node_longitude": "357.5723247841046",
        "orbital_period": "1161.581444080808",
        "perihelion_distance": "1.09854826220025",
        "perihelion_argument": "334.4695067031793",
        "aphelion_distance": "3.226565033287567",
        "perihelion_time": "2458857.894741265521",
        "mean_anomaly": "44.19655066463096",
        "mean_motion": ".309922306209771",
        "equinox": "J2000",
        "orbit_class": {
            "orbit_class_type": "AMO",
            "orbit_class_description": "Near-Earth asteroid orbits similar to that of 1221 Amor",
            "orbit_class_range": "1.017 AU < q (perihelion) < 1.3 AU"
        }
    },
    "is_sentry_object": false
}